P/2011 W1 (PANSTARRS),e,3.7186,161.7846,282.7608,4.664646,0.0978309,0.28783089,13.4256,06/25.0/2022,2000,g 11.5,4.0
# From MPC 79342
P/2011 Y2 (Boattini),e,6.3755,309.3415,131.9299,6.238735,0.0632498,0.71004949,238.1437,06/25.0/2022,2000,g 15.0,4.0
# From MPEC 2022-K19
P/2012 B1 (PANSTARRS),e,7.6102,36.2163,162.4333,6.531428,0.0590462,0.40894220,193.0550,06/25.0/2022,2000,g  9.0,4.0
# From MPC 78590
P/2012 C3 (PANSTARRS),e,9.0920,135.3677,344.9542,9.748681,0.0323806,0.63011148,359.9758,10/06.0/2011,2000,g 13.0,4.0
# From MPC 84931
P/2012 F2 (PANSTARRS),e,14.7041,226.9961,33.3248,6.334188,0.0618255,0.54139645,207.9101,06/25.0/2022,2000,g 12.0,4.0
# From MPEC 2022-ED3
P/2012 G1 (PANSTARRS),e,12.1742,283.2788,266.0937,4.164772,0.1159624,0.32957810,73.3771,06/25.0/2022,2000,g 15.0,4.0
# From MPC 80898
P/2012 K3 (Gibbs),e,13.1921,125.8159,172.2359,3.627574,0.1426526,0.42286790,148.7459,06/25.0/2022,2000,g 15.0,4.0
# From MPC 88326
P/2012 NJ (La Sagra),e,84.6202,315.5678,338.3771,8.464870,0.0400197,0.84688071,146.5590,06/25.0/2022,2000,g 14.5,4.0
# From MPC 81470
P/2012 O1 (McNaught),e,7.4283,91.9489,238.2995,3.541373,0.1478926,0.59446350,178.9679,06/25.0/2022,2000,g 17.5,4.0
# From MPC 80899
P/2012 O2 (McNaught),e,24.4766,120.6843,183.4695,3.625520,0.1427738,0.53229913,163.6140,06/25.0/2022,2000,g 17.0,4.0
# From MPEC 2022-K19
P/2012 O3 (McNaught),e,16.6156,336.4142,344.7519,4.574448,0.1007386,0.64718292,2.6432,06/25.0/2022,2000,g 16.5,4.0
# From MPC 82320
P/2012 T2 (PANSTARRS),e,12.5647,73.7156,310.6296,5.730488,0.0718483,0.16207942,240.3867,06/25.0/2022,2000,g 10.0,4.0
# From MPC 80900
P/2012 T3 (PANSTARRS),e,9.5619,114.3852,195.5228,6.151006,0.0646078,0.61698002,239.1979,06/25.0/2022,2000,g 15.0,4.0
# From MPEC 2022-L66
C/2012 T4 (McNaught),e,24.1104,99.3263,219.9508,222.8324,0.0002963,0.99124021,0.0000,10/15.1845/2012,2000,g 13.5,4.0
# From MPC 82720
P/2012 U2 (PANSTARRS),e,10.7591,185.3220,228.2413,7.134249,0.0517228,0.49949975,181.5999,06/25.0/2022,2000,g 12.5,4.0
# From MPC 84024
P/2012 US27 (Siding Spring),e,39.3632,49.1982,0.8100,5.165725,0.0839474,0.64809392,288.6986,06/25.0/2022,2000,g 13.5,4.0
# From MPEC 2022-L66
C/2012 V1 (PANSTARRS),e,157.8349,85.5216,123.6576,1552,0.0000161,0.99863625,0.0000,07/18.4367/2013,2000,g 12.0,4.0
# From MPC 82721
P/2012 WA34 (Lemmon-PANSTARRS),e,6.0790,93.6052,356.3628,4.690246,0.0970310,0.34480176,323.3508,06/25.0/2022,2000,g 13.5,4.0
# From MPC 82721
P/2013 AL76 (Catalina),e,144.8592,145.9988,27.0509,6.498053,0.0595017,0.68623517,207.6846,06/25.0/2022,2000,g 16.0,4.0
# From MPEC 2022-K19
P/2013 EW90,e,31.7922,160.2947,346.1414,4.113733,0.1181272,0.19464792,58.5278,06/25.0/2022,2000,g 14.3,4.0
# From MPC 91612
P/2013 G1 (Kowalski),e,5.4598,221.3325,51.5282,6.894957,0.0544386,0.51175980,169.7403,06/25.0/2022,2000,g 11.0,4.0
# From MPC 84025
P/2013 G4 (PANSTARRS),e,5.9162,339.6378,214.6445,4.439698,0.1053595,0.40935051,0.5940,06/25.0/2022,2000,g 15.0,4.0
# From MPEC 2022-L66
C/2013 G5 (Catalina),e,40.8538,143.9283,165.9232,2789,0.0000067,0.99966692,0.0000,09/04.3273/2013,2000,g 14.0,4.0
# From MPC 91613
P/2013 J2 (McNaught),e,15.5185,289.3750,37.8317,6.222763,0.0634935,0.65756361,204.4569,06/25.0/2022,2000,g 13.0,4.0
# From MPC 86229
P/2013 N3 (PANSTARRS),e,2.1740,17.4645,323.9534,7.393550,0.0490258,0.59325423,149.4787,06/25.0/2022,2000,g 13.0,4.0
# From MPC 85834
P/2013 N5 (PANSTARRS),e,23.4592,187.1554,176.9270,6.797261,0.0556164,0.73250035,182.1754,06/25.0/2022,2000,g 17.0,4.0
# From MPC 85834
P/2013 P1 (PANSTARRS),e,18.7254,160.5890,138.2366,8.578836,0.0392249,0.60511090,133.4719,06/25.0/2022,2000,g 12.0,4.0
# From MPC 94671
P/2013 R3 (Catalina-PANSTARRS),e,0.8649,341.9854,11.2548,3.032643,0.1866260,0.27553964,241.6582,06/25.0/2022,2000,g 14.0,4.0
# From unp
P/2013 R3-A (Catalina-PANSTARRS),e,0.8643,341.9522,11.2939,3.032500,0.1866392,0.27550927,241.6980,06/25.0/2022,2000,g  9.0,4.0
# From MPEC 2015-M77
P/2013 R3-B (Catalina-PANSTARRS),e,0.8655,342.0081,11.2287,3.032720,0.1866189,0.27555458,241.6368,06/25.0/2022,2000,g  9.0,4.0
# From MPC 85835
P/2013 T1 (PANSTARRS),e,24.3021,10.0803,346.1456,5.857853,0.0695179,0.62427568,225.5621,06/25.0/2022,2000,g 16.5,4.0
# From MPC 86643
P/2013 T2 (Schwartz),e,9.4578,0.7998,345.5632,3.491350,0.1510824,0.50120193,141.5819,06/25.0/2022,2000,g 16.0,4.0
# From MPC 91613
P/2013 W1 (PANSTARRS),e,4.6958,117.8437,1.2447,3.488211,0.1512864,0.59275235,98.7588,06/25.0/2022,2000,g 17.5,4.0
# From MPC101095
P/2013 YG46 (Spacewatch),e,7.8573,48.8364,242.5882,3.274470,0.1663384,0.45472740,327.5206,06/25.0/2022,2000,g 10.0,4.0
# From MPC 89728
P/2014 A2 (Hill),e,24.5390,106.6304,356.1554,5.927539,0.0682956,0.64544503,217.1643,06/25.0/2022,2000,g 15.0,4.0
# From MPC 92981
P/2014 A3 (PANSTARRS),e,13.7128,229.9782,214.0114,4.611354,0.0995317,0.24696261,330.0782,06/25.0/2022,2000,g 12.0,4.0
# From MPEC 2022-L66
C/2014 A5 (PANSTARRS),e,31.9730,310.0763,182.1044,80.76378,0.0013579,0.94076632,3.9100,06/25.0/2022,2000,g 10.0,4.0
# From MPEC 2022-HC2
C/2014 B1 (Schwartz),e,28.4116,161.4228,345.6425,4018,0.0000039,0.99762489,0.0000,09/06.3174/2017,2000,g  4.0,4.0
# From MPC102095
P/2014 C1 (TOTAS),e,2.6925,167.8034,23.8894,3.034453,0.1864591,0.45020022,217.6144,06/25.0/2022,2000,g 15.5,4.0
# From MPEC 2022-L66
C/2014 F2 (Tenagra),e,119.0104,267.3945,85.9957,153.5612,0.0005179,0.97200499,0.0000,01/05.4283/2015,2000,g  9.5,4.0
# From MPC 94280
C/2014 F3 (Sheppard-Trujillo),e,6.5622,326.5836,4.0590,14.83036,0.0172574,0.61603532,6.8859,06/25.0/2022,2000,g  6.0,4.0
# From MPEC 2022-M21
C/2014 G1 (PANSTARRS),e,165.6769,337.9637,77.4036,798.9672,0.0000436,0.99312028,0.0000,11/09.3428/2013,2000,g  9.0,4.0
# From MPC 98560
P/2014 L2 (NEOWISE),e,5.1999,149.3473,182.7014,6.304507,0.0622626,0.64814942,180.2764,06/25.0/2022,2000,g 12.0,4.0
# From MPC 90769
P/2014 L3 (Hill),e,6.2717,115.4852,178.6968,8.175754,0.0421611,0.77311348,122.9329,06/25.0/2022,2000,g 16.0,4.0
# From MPC 91614
P/2014 M4 (PANSTARRS),e,3.3408,263.2064,148.0029,5.869943,0.0693032,0.59523260,189.6345,06/25.0/2022,2000,g 15.0,4.0
# From MPEC 2022-K19
P/2014 MG4 (Spacewatch-PANSTARRS),e,9.3686,311.7325,299.0733,5.012850,0.0878167,0.25907813,289.2523,06/25.0/2022,2000,g  9.5,4.0
# From MPC 98560
P/2014 O3 (PANSTARRS),e,7.7993,87.6434,204.7532,7.573208,0.0472916,0.38502480,141.3205,06/25.0/2022,2000,g 10.5,4.0
# From MPEC 2022-C56
C/2014 OG392 (PANSTARRS),e,9.0328,145.7955,254.2126,12.24664,0.0229974,0.18592611,4.6897,06/25.0/2022,2000,g  6.0,4.0
# From MPEC 2022-M21
P/2014 R5 (Lemmon-PANSTARRS),e,1.0883,126.5638,213.7371,4.058726,0.1205367,0.41412464,353.5132,06/25.0/2022,2000,g 15.0,4.0
# From MPEC 2022-M21
C/2014 S1 (PANSTARRS),e,123.6718,352.6221,288.6723,43224,0.0000001,0.99981180,0.0000,10/24.8256/2013,2000,g  7.0,4.0
# From MPEC 2022-L66
C/2014 S3 (PANSTARRS),e,169.3190,355.9431,292.9135,82.91179,0.0013055,0.97523499,0.0000,08/07.7746/2014,2000,g 17.0,4.0
# From MPEC 2022-M21
C/2014 U3 (Kowalski),e,152.8693,163.5664,50.8354,340.0175,0.0001572,0.99252980,0.0000,08/31.8282/2014,2000,g 14.5,4.0
# From MPC 91616
P/2014 U4 (PANSTARRS),e,6.4292,11.8846,347.8027,3.507845,0.1500181,0.46493821,74.4667,06/25.0/2022,2000,g 18.0,4.0
# From MPC 95211
P/2014 V1 (PANSTARRS),e,22.5279,166.2005,177.6324,5.479736,0.0768360,0.53452425,207.9506,06/25.0/2022,2000,g 14.0,4.0
# From MPC 93586
P/2014 W1 (PANSTARRS),e,8.8367,246.2397,152.1571,4.464922,0.1044680,0.38914115,303.3352,06/25.0/2022,2000,g 15.5,4.0
# From MPC105542
P/2014 W4 (PANSTARRS),e,15.2816,33.3813,67.6398,6.591146,0.0582455,0.35286166,137.9936,06/25.0/2022,2000,g 11.0,4.0
# From MPEC 2022-L66
C/2014 W5 (Lemmon-PANSTARRS),e,145.6768,245.6126,281.6511,106.1356,0.0009014,0.97722062,0.0000,02/08.7456/2016,2000,g 10.0,4.0
# From MPC 94281
P/2014 X1 (Elenin),e,26.0362,61.5467,33.8884,6.206199,0.0637479,0.70920349,174.1981,06/25.0/2022,2000,g 15.0,4.0
# From MPC 92275
P/2015 A3 (PANSTARRS),e,172.5374,277.2728,249.3917,7.813249,0.0451291,0.85054092,121.1730,06/25.0/2022,2000,g 20.0,4.0
# From MPC 99270
P/2015 B1 (PANSTARRS),e,18.0466,352.9430,188.9001,9.493847,0.0336931,0.36680890,83.5226,06/25.0/2022,2000,g  8.5,4.0
# From MPC109141
P/2015 B4 (Lemmon-PANSTARRS),e,1.7621,266.0456,227.3190,8.520826,0.0396261,0.56025417,106.9802,06/25.0/2022,2000,g 11.0,4.0
# From MPC101096
P/2015 C1 (TOTAS-Gibbs),e,13.9092,348.7985,178.1608,6.577394,0.0584283,0.56056150,153.0558,06/25.0/2022,2000,g 12.5,4.0
# From MPC109141
P/2015 D5 (Kowalski),e,20.5240,74.0665,39.7127,8.957870,0.0367618,0.48947318,110.5725,06/25.0/2022,2000,g  9.0,4.0
# From MPC 96866
P/2015 D6 (Lemmon-PANSTARRS),e,20.2033,45.8973,125.0614,7.138498,0.0516766,0.36125753,131.9996,06/25.0/2022,2000,g 10.5,4.0
# From MPEC 2022-L66
C/2015 F4 (Jacques),e,48.6929,285.9155,36.4229,121.7103,0.0007340,0.98648620,0.0000,08/12.9910/2015,2000,g 11.0,4.0
# From MPEC 2021-P47
P/2015 HG16 (PANSTARRS),e,18.8001,57.8045,47.7084,4.764529,0.0947707,0.35234854,279.5073,06/25.0/2022,2000,g 12.5,4.0
# From MPC 95213
P/2015 K5 (PANSTARRS),e,39.9446,134.1943,106.3478,6.725320,0.0565112,0.55225572,145.7872,06/25.0/2022,2000,g 13.5,4.0
# From MPC107684
P/2015 M2 (PANSTARRS),e,3.9705,86.5857,225.8768,7.239513,0.0505988,0.18028703,125.3150,06/25.0/2022,2000,g  8.5,4.0
# From MPEC 2021-P47
C/2015 O1 (PANSTARRS),h,02/20.1455/2018,127.1969,299.8395,89.5739,1.001525,3.723596,2000,6.5,4.0
# From MPC 99819
P/2015 P4 (PANSTARRS),e,8.7174,104.7087,280.6243,6.047053,0.0662809,0.58555873,155.4583,06/25.0/2022,2000,g 14.0,4.0
# From MPEC 2022-K19
P/2015 PD229 (Cameron-ISON),e,2.0257,342.6457,352.6342,7.189769,0.0511248,0.32790735,127.9751,06/25.0/2022,2000,g 11.5,2.0
# From MPC 96867
P/2015 Q2 (Pimentel),e,146.5376,228.5056,244.6117,7.352774,0.0494342,0.75053995,122.7712,06/25.0/2022,2000,g 15.5,4.0
# From MPC 98562
P/2015 R1 (PANSTARRS),e,22.6932,48.3480,300.5435,5.880180,0.0691223,0.63439802,176.3711,06/25.0/2022,2000,g 14.0,4.0
# From MPC 95734
